[{"OBJECT_NAME":"STARLINK-5034","OBJECT_ID":"2022-119C","EPOCH":"2026-03-09T21:34:02.947008","MEAN_MOTION":15.09373259,"ECCENTRICITY":0.00017229,"INCLINATION":53.2172,"RA_OF_ASC_NODE":323.3584,"ARG_OF_PERICENTER":85.3703,"MEAN_ANOMALY":274.7486,"EPHEMERIS_TYPE":0,"CLASSIFICATION_TYPE":"U","NORAD_CAT_ID":53888,"ELEMENT_SET_NO":999,"REV_AT_EPOCH":19171,"BSTAR":0.0012309623,"MEAN_MOTION_DOT":0.00019646,"MEAN_MOTION_DDOT":0},{"OBJECT_NAME":"OBJECT C","OBJECT_ID":"2025-108C","EPOCH":"2026-03-09T22:37:32.676384","MEAN_MOTION":15.13945167,"ECCENTRICITY":0.00134886,"INCLINATION":97.4753,"RA_OF_ASC_NODE":145.0046,"ARG_OF_PERICENTER":355.6312,"MEAN_ANOMALY":4.48,"EPHEMERIS_TYPE":0,"CLASSIFICATION_TYPE":"U","NORAD_CAT_ID":64089,"ELEMENT_SET_NO":999,"REV_AT_EPOCH":4425,"BSTAR":0.00040295487,"MEAN_MOTION_DOT":7.256e-5,"MEAN_MOTION_DDOT":0}]
